STARLINK-2022           
1 47643U 21012Z   23354.45762788 -.00000486  00000+0 -13766-4 0  9990
2 47643  53.0554  88.8857 0001110  82.0165 278.0950 15.06390517157626
